{"type":"FeatureCollection","features":[{"type":"Feature","geometry":{"type":"Polygon","coordinates":[[[93.1960531286895,23.055837950373387],[93.12265211464597,23.006346792241555],[93.09665592217222,22.786386089433414],[93.1608818094603,22.180119402318468],[92.85504425094558,22.06326527895164],[92.6057866407561,22.12375447222388],[92.50944780982395,22.741019194479232],[92.40240466434379,23.266175372433676],[92.26477776301218,23.726718093938228],[92.29536151886364,24.245000499929915],[92.42228410564725,24.250499517500117],[92.53238562671255,24.17763753469492],[92.7617637955986,24.51307760647734],[92.89633232134507,24.39072446554031],[93.00949221799551,24.412720535821126],[93.2067574432375,24.047035867402585],[93.25263307701472,24.02091553394412],[93.39025997834635,23.497134110382227],[93.3581470347023,23.330788828883566],[93.1960531286895,23.055837950373387]]]},"properties":{"st_nm":"Mizoram"}},{"type":"Feature","geometry":{"type":"Polygon","coordinates":[[[80.24994927676134,12.857909866430829],[80.0083376055347,12.254392688100985],[79.84012694835161,11.956070984917439],[79.68567898130168,11.880459493327141],[79.80801400470757,11.844715879120816],[79.81260156808528,11.424041035000243],[79.85083126289963,10.985494383776505],[79.7483756807972,10.996492418916914],[79.72390867611603,10.92912945368192],[79.84930207510706,10.827397628633154],[79.87223989199566,10.359981135165848],[79.47159269034137,10.315988994604218],[79.2269226435296,10.137270923572602],[79.1168211224643,9.849947255529464],[78.89967645591885,9.469140288792866],[79.06482873751679,9.298670744116555],[78.38434016982154,9.09383233962647],[78.1717830666538,8.883494917566184],[77.9699302780341,8.334967914938375],[77.58916251768326,8.139752791196148],[77.09829323626714,8.292350528769298],[77.26956226903538,8.578299442419883],[77.19921963057699,8.770765057377009],[77.25579957890221,8.87937065438853],[77.20380719395472,9.070461514953106],[77.28179577137597,9.298670744116555],[77.33990490749376,9.419649130661034],[77.40260160698928,9.525505218887453],[77.16710668693295,9.61211474561816],[77.2680330812428,10.122148625254543],[77.28791252254626,10.232128976658615],[77.09064729730427,10.314614240211668],[77.05088841469735,10.262373573294735],[76.8918528842697,10.259624064509632],[76.8337437481519,10.339359819277584],[76.90714476219543,10.782030733678972],[76.65635796421337,10.938752734429777],[76.7068211613683,11.239823946398422],[76.44227167325306,11.201330823406998],[76.23430213346305,11.52714761444156],[76.41780466857188,11.671496825659403],[76.84750643828507,11.594510579676554],[76.90867394998801,11.795224720988985],[77.67632622185997,11.951946721739787],[77.74666886031835,12.15541037183732],[77.4714150576551,12.243394652960578],[77.60139602002386,12.668193760258806],[77.8307741889099,12.866158392786133],[77.86594550813909,12.870282655963788],[78.23142139056418,12.760302304559715],[78.41186555008787,12.626951128482279],[78.60301402415956,12.84416232250532],[78.62136427767045,12.991261042508267],[79.22845183132218,13.157606324006924],[79.28350259185483,13.123237464193153],[79.94564090603919,13.363819482889559],[80.03739217359362,13.538413290743524],[80.26829953027223,13.56453362420199],[80.30041247391627,13.142484025688866],[80.24994927676134,12.857909866430829]]]},"properties":{"st_nm":"Tamil Nadu"}},{"type":"Feature","geometry":{"type":"Polygon","coordinates":[[[75.98657371106613,21.36901431071344],[75.60886432630045,21.389635626601702],[75.21127550023131,21.411631696882516],[74.77545697934782,21.61509534698005],[74.43291891381133,22.03027117353042],[74.14696079660007,21.950535418762467],[74.05826790463081,22.549928333914657],[74.37939734107127,22.63516310625281],[74.31975901716089,23.059962213551042],[74.73416890894833,23.220808477479498],[74.77239860376268,23.542501005336405],[74.94060926094578,23.76521121692965],[74.90849631730173,24.212006394508695],[74.69746840192657,24.48283300984122],[75.19139605892785,25.03685903003923],[75.35196077714808,25.01898722293607],[75.54922600239007,24.702793712649363],[75.78472092244641,24.761908151529052],[75.92081863598546,24.54332220311346],[75.83671330739391,24.05665914815044],[75.46206229821338,23.917808954502803],[75.68991127930684,23.74733940982649],[76.21289350436702,24.20925688572359],[76.88114856972169,24.130895885348192],[76.84444806269991,24.43609136049449],[77.06923866820824,24.55706974703897],[76.87656100634396,25.040983293216886],[77.31237952722745,25.080851170600862],[77.0830013583414,25.33655548761533],[76.59366126471785,25.408042716027975],[76.54625644314807,25.838340840896407],[76.85209400166279,26.032181210246083],[77.11970186536317,26.213648790062802],[77.37507622672297,26.3648717732434],[78.22224626380874,26.832288266710705],[78.54490488804177,26.76355054708316],[78.78039980809811,26.769049564653365],[79.13517137597518,26.4404832648337],[78.93790615073318,25.95244545547813],[78.88591376578569,25.912577578094155],[78.45162443269479,25.57163848874153],[78.39045692099184,25.205953820322993],[78.44703686931706,25.12209380237739],[78.37363585527352,25.09872297770402],[78.19013332016469,24.841643906297005],[78.26812189758594,24.449838904419998],[78.80639600057185,24.17901228908747],[78.99142772347327,24.416844798998778],[78.98531097230297,24.441590378064692],[78.63971453118134,25.071227889853006],[78.55866757817493,25.21282759228575],[78.87979701461539,25.15783741658371],[79.32326147446173,25.149588890228404],[79.28044421626967,25.32418269808237],[79.67344547896109,25.12071904798484],[80.10467643646685,25.350303031540836],[80.2637119668945,25.024486240506274],[80.4777982578548,24.97636983676699],[80.71482236570372,25.0657288722828],[81.12005713073572,24.903507853961795],[81.54058377369347,25.18808201321983],[82.09414975460511,24.81689832723109],[82.2975317310174,24.606560905170802],[82.52385152431829,24.6766733791909],[82.79757613918898,24.576316308534683],[82.81286801711471,23.96180109506443],[82.69359136929397,23.919183708895353],[82.49785533184455,23.784457778425363],[82.20883883904813,23.85319549805291],[81.60328047318899,23.88481484908158],[81.98557742133238,23.414648846829174],[82.12320432266401,23.10395435411267],[81.73173224776517,22.67640573802934],[81.72867387218002,22.669531966066586],[81.4748286986128,22.489439140642418],[81.19345814477926,22.490813895034968],[81.04512692889962,22.240608595590707],[80.84633251586504,21.835056049788193],[80.66130079296364,21.333270696507114],[80.26829953027223,21.61784485576515],[79.91811552577286,21.52436155707169],[79.53887695321461,21.540858609782298],[79.50982238515572,21.595848785484336],[79.23456858249247,21.718201926421365],[78.89967645591885,21.50099073239832],[78.4332741791839,21.49686646922067],[78.34305209942205,21.58897501352158],[78.02956860194446,21.42125497763037],[77.5753998275501,21.52711106585679],[77.47906099661796,21.7704425933383],[77.06159272924538,21.712702908851163],[76.78175136320439,21.55873041688546],[76.66247471538367,21.281030029590177],[76.38263334934268,21.076191625100094],[75.98657371106613,21.36901431071344]]]},"properties":{"st_nm":"Madhya Pradesh"}},{"type":"Feature","geometry":{"type":"Polygon","coordinates":[[[80.56190358644636,20.823236816870732],[80.54508252072804,20.10011600638896],[80.67200510751165,19.702811986941747],[80.85244926703534,19.364622406374227],[80.48238582123253,19.33712731852321],[80.2759454692351,18.71986259626786],[79.91352796239515,18.825718684494277],[79.92881984032088,19.158409247491594],[79.806484816915,19.579084091612167],[78.93637696294061,19.5502142493686],[78.84156731980104,19.761926425821436],[78.30635159240029,19.911774654609488],[78.19319169574985,19.316506002634945],[77.86288713255394,19.304133213101988],[77.94852164893805,18.84359049159744],[77.73902292135548,18.5562668235543],[77.55093282286893,18.292313980184527],[77.26497470565766,18.422915647476863],[76.91937826453602,17.915631276625582],[76.74046329280492,17.89913422391497],[76.68541253227227,17.681923029891927],[76.4285089831199,17.643429906900504],[76.38263334934268,17.314863607080838],[76.07526660303539,17.33685967736165],[75.60427676292272,17.305240326332985],[75.34125646260006,16.956052710625055],[74.695939214134,16.715470691928648],[74.31517145378317,16.554624428000192],[74.48032373538112,16.249428952853894],[74.20965749609559,15.780637704994037],[74.11790622854117,15.651410792094254],[73.68514608324284,15.728397038077103],[73.51081867488945,15.93735970574484],[73.34719558108408,16.529878848934278],[73.28908644496629,17.115524220160957],[73.04441639815451,17.981619487468024],[72.8364468583645,18.864211807485702],[72.78445447341699,19.264265335718015],[72.79821716355015,19.304133213101988],[72.65447351104824,19.836163163019187],[72.77527934666155,20.13173535741763],[72.96184025735553,20.208721603400477],[73.21109786754502,20.120737322277222],[73.24932756235937,20.122112076669772],[73.40683390499444,20.62389742995085],[73.47411816786769,20.720130237429416],[73.74478440715322,20.564782991071162],[73.94204963239521,20.83973386958134],[73.88852805965513,20.9332171682748],[73.84876917704823,20.997830624724692],[73.84876917704823,20.999205379117246],[73.80748110664874,21.008828659865102],[73.98180851500213,21.521612048286585],[73.93899125681007,21.87354917277962],[74.14696079660007,21.950535418762467],[74.43291891381133,22.03027117353042],[74.77545697934782,21.61509534698005],[75.21127550023131,21.411631696882516],[75.60886432630045,21.389635626601702],[75.98657371106613,21.36901431071344],[76.38263334934268,21.076191625100094],[76.66247471538367,21.281030029590177],[76.78175136320439,21.55873041688546],[77.06159272924538,21.712702908851163],[77.47906099661796,21.7704425933383],[77.5753998275501,21.52711106585679],[78.02956860194446,21.42125497763037],[78.34305209942205,21.58897501352158],[78.4332741791839,21.49686646922067],[78.89967645591885,21.50099073239832],[79.23456858249247,21.718201926421365],[79.50982238515572,21.595848785484336],[79.53887695321461,21.540858609782298],[79.91811552577286,21.52436155707169],[80.26829953027223,21.61784485576515],[80.66130079296364,21.333270696507114],[80.46403556772165,21.17517394136376],[80.56190358644636,20.823236816870732]]]},"properties":{"st_nm":"Maharashtra"}},{"type":"Feature","geometry":{"type":"Polygon","coordinates":[[[82.33881980141689,20.874102729395112],[82.39845812532727,20.05612386582733],[82.71805837397514,19.988760900592336],[82.59419416277669,19.775673969746947],[82.01769036497643,20.049250093864575],[81.87547590026709,20.051999602649676],[82.02839467952444,19.507596863199524],[82.20578046346299,19.12129087889272],[82.09109137901996,18.737734403371018],[81.89994290494826,18.66074815738817],[81.52987945914545,18.240073313267594],[81.39684012119154,17.818023714754467],[81.08488581150652,17.797402398866204],[80.97937185381895,18.165836576069843],[80.7561104361032,18.169960839247498],[80.70564723894827,18.439412700187475],[80.37228430016722,18.611256999256334],[80.2759454692351,18.71986259626786],[80.48238582123253,19.33712731852321],[80.85244926703534,19.364622406374227],[80.67200510751165,19.702811986941747],[80.54508252072804,20.10011600638896],[80.56190358644636,20.823236816870732],[80.46403556772165,21.17517394136376],[80.66130079296364,21.333270696507114],[80.84633251586504,21.835056049788193],[81.04512692889962,22.240608595590707],[81.19345814477926,22.490813895034968],[81.4748286986128,22.489439140642418],[81.72867387218002,22.669531966066586],[81.73173224776517,22.67640573802934],[82.12320432266401,23.10395435411267],[81.98557742133238,23.414648846829174],[81.60328047318899,23.88481484908158],[82.20883883904813,23.85319549805291],[82.49785533184455,23.784457778425363],[82.69359136929397,23.919183708895353],[82.81286801711471,23.96180109506443],[83.32973349100459,24.102026043104622],[84.01633880987013,23.634609549637318],[84.07444794598793,23.33353833766867],[84.03774743896616,23.171317319347665],[84.29312180032596,22.772638545507903],[84.01175124649241,22.527932263633843],[83.80225251890982,22.29422401690019],[83.59122460353467,21.825432769040333],[83.48723983363966,21.643965189223614],[83.26856597930164,21.37726283706874],[83.19210658967296,21.139430327157434],[82.63854060876132,21.088564414633055],[82.33881980141689,20.874102729395112]]]},"properties":{"st_nm":"Chhattisgarh"}},{"type":"Feature","geometry":{"type":"Polygon","coordinates":[[[72.75081234198038,21.062444081174586],[72.73552046405463,21.474870398939856],[72.54284280219036,21.733324224739427],[72.56730980687153,22.181494156711018],[72.86703061421596,22.21448826213224],[72.9465483794298,22.29284926250764],[72.37616133279984,22.314845332788455],[72.2446511826385,21.994527559324098],[72.3088770699266,21.6247186277279],[72.11314103247717,21.198544766037124],[71.6773225115937,20.99645587033214],[71.20633267148104,20.79574172901971],[70.99989231948359,20.74212630771023],[70.92037455426977,20.74212630771023],[70.2398859865745,20.99233160715449],[69.98145324962957,21.227414608280696],[69.39577432507387,21.888671471097677],[68.9660725553607,22.23373482362795],[69.75360426853611,22.41795191222977],[70.12519690213149,22.552677842699758],[70.49678953572688,22.933484809436358],[70.68946719759116,23.117701898038177],[70.31175781282548,23.215309459909292],[70.08085045614685,22.91973726551085],[69.64809031084852,22.79600937018127],[69.13122483695865,22.87437037055667],[68.63270961657965,23.169942564955115],[68.31005099234662,23.57824461954273],[68.33910556040551,23.96592535824208],[68.75351545219296,23.971424375812287],[68.76421976674098,24.2958664124543],[69.73219563944008,24.170763762732168],[70.57324892535556,24.42234381656898],[70.80568546982674,24.220254920863997],[71.11152302834147,24.675298624798344],[71.18798241797015,24.65055304573243],[71.28737962448743,24.61618418591866],[72.05809027194452,24.71241699339722],[72.33487326240035,24.632681238629267],[72.35322351591124,24.56394351900172],[72.35358902785798,24.563577268342843],[72.35382857336779,24.563337238703372],[72.49989802475449,24.416972575963342],[72.5000255439983,24.416844798998778],[72.50005787366794,24.416981179424894],[72.51990498530176,24.50070481694438],[72.68204227867083,24.46392350644028],[72.68332351347208,24.46363285464714],[72.68352807910713,24.46358644834551],[72.72787452509176,24.367353640866945],[72.81614394661773,24.364725990178023],[72.87531424942908,24.362964577400437],[72.95834978197382,24.3604927318788],[72.95878188177038,24.36047986890419],[72.95887932517748,24.3607520625455],[73.00159913996245,24.480083501056118],[73.06735421504311,24.194134587405532],[73.37777933693555,23.90406141057729],[73.36860421018011,23.814702375061483],[73.62703694712505,23.449017706642945],[73.95887069811351,23.3802799870154],[73.98180851500213,23.337662600846322],[74.31975901716089,23.059962213551042],[74.37939734107127,22.63516310625281],[74.05826790463081,22.549928333914657],[74.14696079660007,21.950535418762467],[73.93899125681007,21.87354917277962],[73.98180851500213,21.521612048286585],[73.80748110664874,21.008828659865102],[73.84876917704823,20.999205379117246],[73.84876917704823,20.997830624724692],[73.88852805965513,20.9332171682748],[73.94204963239521,20.83973386958134],[73.74478440715322,20.564782991071162],[73.47411816786769,20.720130237429416],[73.40683390499444,20.62389742995085],[73.24932756235937,20.122112076669772],[73.21109786754502,20.120737322277222],[72.96184025735553,20.208721603400477],[72.77527934666155,20.13173535741763],[72.82880091940163,20.368193112936382],[72.88691005551942,20.461676411629846],[72.85479711187537,20.750374834065532],[72.75081234198038,21.062444081174586]]]},"properties":{"st_nm":"Gujarat"}},{"type":"Feature","geometry":{"type":"Polygon","coordinates":[[[85.23815985613645,22.009649857642156],[85.68315350377537,22.05776626138144],[86.00887050359354,22.115505945868577],[85.96299486981634,22.485314877464766],[86.06697963971135,22.556802105877413],[86.72758876610314,22.21586301652479],[87.10071058749111,21.86392589203176],[87.24292505220045,21.964282962687975],[87.44171946523501,21.767693084553198],[87.48453672342708,21.61509534698005],[87.14811540906088,21.50923925875363],[86.85909891626447,21.213667064355185],[86.80557734352439,20.735252535747474],[86.7765227754655,20.33519900751516],[86.36975882264092,19.98188712862958],[85.67856594039765,19.745429373110827],[85.17240478105577,19.467728985815548],[84.70141494094311,19.118541370107618],[84.42310276269471,18.949446579823856],[83.8909454108791,18.81609540374642],[83.79307739215439,19.018184299451402],[83.75637688513262,18.91095345683243],[83.34808374451546,19.018184299451402],[82.99942892780868,18.608507490471233],[83.07741750522995,18.40366908598115],[82.42751269338616,18.486154349534203],[82.31894036011343,18.044858189525364],[81.9794606701621,18.013238838496697],[81.39684012119154,17.818023714754467],[81.52987945914545,18.240073313267594],[81.89994290494826,18.66074815738817],[82.09109137901996,18.737734403371018],[82.20578046346299,19.12129087889272],[82.02839467952444,19.507596863199524],[81.87547590026709,20.051999602649676],[82.01769036497643,20.049250093864575],[82.59419416277669,19.775673969746947],[82.71805837397514,19.988760900592336],[82.39845812532727,20.05612386582733],[82.33881980141689,20.874102729395112],[82.63854060876132,21.088564414633055],[83.19210658967296,21.139430327157434],[83.26856597930164,21.37726283706874],[83.48723983363966,21.643965189223614],[83.59122460353467,21.825432769040333],[83.80225251890982,22.29422401690019],[84.01175124649241,22.527932263633843],[84.42921951386501,22.351963701387326],[85.06994919895335,22.490813895034968],[85.23815985613645,22.009649857642156]]]},"properties":{"st_nm":"Odisha"}},{"type":"Feature","geometry":{"type":"Polygon","coordinates":[[[80.26829953027223,13.56453362420199],[80.03739217359362,13.538413290743524],[79.94564090603919,13.363819482889559],[79.28350259185483,13.123237464193153],[79.22845183132218,13.157606324006924],[78.62136427767045,12.991261042508267],[78.60301402415956,12.84416232250532],[78.41186555008787,12.626951128482279],[78.23142139056418,12.760302304559715],[78.58619295844126,13.275835201766302],[78.19625007133499,13.568657887379644],[78.1259074328766,13.787243835795236],[77.9699302780341,13.959088134864098],[77.45612317972936,13.682762501961367],[76.94843283259492,14.095188819726637],[77.00348359312757,14.198295399167954],[77.00501278092014,14.235413767766829],[76.76493029748609,14.602473190577918],[76.76034273410838,14.988779174884721],[77.15640237238493,15.14000215806532],[77.02642141001618,15.837002635088623],[77.51423231584715,15.927736424996983],[78.08309017468454,15.841126898266277],[78.24824245628248,15.971728565558612],[78.25588839524536,16.008846934157486],[78.92261427280745,16.12295154873921],[79.21468914118901,16.226058128180526],[79.21010157781129,16.356659795472865],[79.25750639938107,16.5656224631406],[79.67956223013138,16.693474621647834],[80.07256349282281,16.817202516977414],[80.05574242710449,16.971175008943113],[80.87691627171652,17.07015732520678],[80.94114215900461,17.218630799602277],[80.91055840315315,17.6379308893303],[81.08488581150652,17.797402398866204],[81.39684012119154,17.818023714754467],[81.9794606701621,18.013238838496697],[82.31894036011343,18.044858189525364],[82.42751269338616,18.486154349534203],[83.07741750522995,18.40366908598115],[82.99942892780868,18.608507490471233],[83.34808374451546,19.018184299451402],[83.75637688513262,18.91095345683243],[83.79307739215439,19.018184299451402],[83.8909454108791,18.81609540374642],[84.42310276269471,18.949446579823856],[84.70141494094311,19.118541370107618],[84.12796951872801,18.31293529607279],[83.66309642978564,18.07922704933914],[83.51935277728371,17.950000136439353],[83.1615228338215,17.559569888954897],[82.54220177782918,17.248875396238397],[82.31894036011343,17.05778453567382],[82.3143527967357,16.558748691177847],[81.71491118204686,16.311292900518684],[81.55281727603405,16.347036514725005],[81.21333758608272,16.208186321077367],[80.83104063793931,15.70640096779629],[80.41815993394444,15.7985095120972],[80.12302668997773,15.368211387228769],[80.04045054917876,15.009400490772984],[80.19642770402126,14.585976137867307],[80.1306726289406,14.228539995804073],[80.26829953027223,13.56453362420199]]]},"properties":{"st_nm":"Andhra Pradesh"}},{"type":"Feature","geometry":{"type":"Polygon","coordinates":[[[77.4591815553145,16.88456548221241],[77.28791252254626,16.4089004623898],[77.59375008106099,16.342912251547354],[77.51423231584715,15.927736424996983],[77.02642141001618,15.837002635088623],[77.15640237238493,15.14000215806532],[76.76034273410838,14.988779174884721],[76.76493029748609,14.602473190577918],[77.00501278092014,14.235413767766829],[77.00348359312757,14.198295399167954],[76.94843283259492,14.095188819726637],[77.45612317972936,13.682762501961367],[77.9699302780341,13.959088134864098],[78.1259074328766,13.787243835795236],[78.19625007133499,13.568657887379644],[78.58619295844126,13.275835201766302],[78.23142139056418,12.760302304559715],[77.86594550813909,12.870282655963788],[77.8307741889099,12.866158392786133],[77.60139602002386,12.668193760258806],[77.4714150576551,12.243394652960578],[77.74666886031835,12.15541037183732],[77.67632622185997,11.951946721739787],[76.90867394998801,11.795224720988985],[76.84750643828507,11.594510579676554],[76.41780466857188,11.671496825659403],[76.41321710519416,11.758106352390111],[76.11349629784974,11.979441809590806],[75.93611051391119,11.94094868659938],[75.4146574766436,12.290136302307308],[75.41618666443617,12.499098969975044],[74.86873743469482,12.758927550167165],[74.77698616714041,13.07099679727622],[74.58277931748356,13.926094029442876],[74.26317906883567,14.719327313944746],[74.08579328489714,14.900794893761462],[74.29682120027229,15.041019841801655],[74.25094556649508,15.491939282558349],[74.2784709467614,15.522183879194468],[74.11790622854117,15.651410792094254],[74.20965749609559,15.780637704994037],[74.48032373538112,16.249428952853894],[74.31517145378317,16.554624428000192],[74.695939214134,16.715470691928648],[75.34125646260006,16.956052710625055],[75.60427676292272,17.305240326332985],[76.07526660303539,17.33685967736165],[76.38263334934268,17.314863607080838],[76.4285089831199,17.643429906900504],[76.68541253227227,17.681923029891927],[76.74046329280492,17.89913422391497],[76.91937826453602,17.915631276625582],[77.26497470565766,18.422915647476863],[77.55093282286893,18.292313980184527],[77.60139602002386,18.27581692747392],[77.65644678055651,17.969246697935066],[77.44388967738877,17.584315468020815],[77.6855013486154,17.51145348521562],[77.37966379010068,17.22275506277993],[77.46682749427738,16.954677956232505],[77.4591815553145,16.88456548221241]]]},"properties":{"st_nm":"Karnataka"}},{"type":"Feature","geometry":{"type":"Polygon","coordinates":[[[74.25094556649508,15.491939282558349],[74.29682120027229,15.041019841801655],[74.08579328489714,14.900794893761462],[73.93440369343234,15.432824843678661],[73.68514608324284,15.728397038077103],[74.11790622854117,15.651410792094254],[74.2784709467614,15.522183879194468],[74.25094556649508,15.491939282558349]]]},"properties":{"st_nm":"Goa"}},{"type":"Feature","geometry":{"type":"Polygon","coordinates":[[[76.41780466857188,11.671496825659403],[76.23430213346305,11.52714761444156],[76.44227167325306,11.201330823406998],[76.7068211613683,11.239823946398422],[76.65635796421337,10.938752734429777],[76.90714476219543,10.782030733678972],[76.8337437481519,10.339359819277584],[76.8918528842697,10.259624064509632],[77.05088841469735,10.262373573294735],[77.09064729730427,10.314614240211668],[77.28791252254626,10.232128976658615],[77.2680330812428,10.122148625254543],[77.16710668693295,9.61211474561816],[77.40260160698928,9.525505218887453],[77.33990490749376,9.419649130661034],[77.28179577137597,9.298670744116555],[77.20380719395472,9.070461514953106],[77.25579957890221,8.87937065438853],[77.19921963057699,8.770765057377009],[77.26956226903538,8.578299442419883],[77.09829323626714,8.292350528769298],[76.68235415668711,8.776264074947214],[76.47897218027482,9.12270218187004],[76.28017776724026,9.789458062257225],[76.21442269215959,10.193635853667189],[75.95751914300723,10.685797926200411],[75.8260089928459,11.122969823031596],[75.5538135657678,11.701741422295523],[75.1653998664541,12.089422160994877],[74.86873743469482,12.758927550167165],[75.41618666443617,12.499098969975044],[75.4146574766436,12.290136302307308],[75.93611051391119,11.94094868659938],[76.11349629784974,11.979441809590806],[76.41321710519416,11.758106352390111],[76.41780466857188,11.671496825659403]]]},"properties":{"st_nm":"Kerala"}},{"type":"Feature","geometry":{"type":"Polygon","coordinates":[[[79.806484816915,19.579084091612167],[79.92881984032088,19.158409247491594],[79.91352796239515,18.825718684494277],[80.2759454692351,18.71986259626786],[80.37228430016722,18.611256999256334],[80.70564723894827,18.439412700187475],[80.7561104361032,18.169960839247498],[80.97937185381895,18.165836576069843],[81.08488581150652,17.797402398866204],[80.91055840315315,17.6379308893303],[80.94114215900461,17.218630799602277],[80.87691627171652,17.07015732520678],[80.05574242710449,16.971175008943113],[80.07256349282281,16.817202516977414],[79.67956223013138,16.693474621647834],[79.25750639938107,16.5656224631406],[79.21010157781129,16.356659795472865],[79.21468914118901,16.226058128180526],[78.92261427280745,16.12295154873921],[78.25588839524536,16.008846934157486],[78.24824245628248,15.971728565558612],[78.08309017468454,15.841126898266277],[77.51423231584715,15.927736424996983],[77.59375008106099,16.342912251547354],[77.28791252254626,16.4089004623898],[77.4591815553145,16.88456548221241],[77.46682749427738,16.954677956232505],[77.37966379010068,17.22275506277993],[77.6855013486154,17.51145348521562],[77.44388967738877,17.584315468020815],[77.65644678055651,17.969246697935066],[77.60139602002386,18.27581692747392],[77.55093282286893,18.292313980184527],[77.73902292135548,18.5562668235543],[77.94852164893805,18.84359049159744],[77.86288713255394,19.304133213101988],[78.19319169574985,19.316506002634945],[78.30635159240029,19.911774654609488],[78.84156731980104,19.761926425821436],[78.93637696294061,19.5502142493686],[79.806484816915,19.579084091612167]]]},"properties":{"st_nm":"Telangana"}},{"type":"Feature","geometry":{"type":"Polygon","coordinates":[[[88.08244915032336,22.26122991147897],[87.99834382173181,22.24473285876836],[88.18643392021836,22.104507910728167],[87.78884509414922,21.698955364925652],[87.48453672342708,21.61509534698005],[87.44171946523501,21.767693084553198],[87.24292505220045,21.964282962687975],[87.10071058749111,21.86392589203176],[86.72758876610314,22.21586301652479],[86.84533622613131,22.400080105126612],[86.55937810892004,22.713524106628213],[86.24130704806473,22.9967235114937],[85.88500629239508,23.16719305617001],[85.85901009992133,23.42977114514723],[85.88500629239508,23.48338656645672],[86.31012049873054,23.411899338044073],[86.48597709487652,23.63598430402987],[86.80098978014666,23.69922300608721],[86.80098978014666,23.833948936557196],[87.08541870956536,23.811952866276382],[87.23374992544501,24.02503979712177],[87.638984690477,24.254623780677772],[87.88977148845908,24.565318273394276],[87.83930829130415,24.74541109881844],[87.89130067625166,24.855391450222513],[87.71085651672797,25.258194487239926],[88.06715727239762,25.483654207618272],[87.82707478896356,25.89058150781334],[87.85001260585217,26.039054982208835],[88.23995549295844,26.45835507193686],[88.10997453058968,26.54771410745267],[88.03810270433873,27.219969005410057],[88.28124356335792,27.131984724286802],[88.42498721585984,27.071495531014563],[88.53203036133999,27.17597686484843],[88.72164964761913,27.138858496249554],[88.86845167570618,26.96563944278814],[89.09018390562936,26.84053679306601],[89.85171942633102,26.69756233624072],[89.83489836061271,26.414362931375234],[89.84254429957558,26.38274358034656],[89.72938440292513,26.17103140389372],[89.3486166425743,26.01018513996527],[88.75987934243346,26.329128159037076],[88.40052021117867,26.64394691493123],[88.33323594830543,26.496848194928287],[88.3515862018163,26.221897316418104],[88.09315346487136,25.930449385197317],[88.44639584495587,25.595009313414895],[88.81187172738098,25.52352208500225],[88.90973974610569,25.179833486864524],[88.43569153040787,25.200454802752787],[88.39440346000838,24.96949606480424],[88.0273983897907,24.690420923116406],[88.13291234747828,24.510328097692238],[88.74152908892258,24.254623780677772],[88.70024101852309,24.096527025534417],[88.59319787304294,23.616737742534156],[88.70941614527854,23.231806512619904],[88.85774736115818,22.967853669250132],[89.05501258640017,22.12787873540153],[89.06877527653333,21.949160664369916],[88.4448666571633,21.917541313341246],[88.08244915032336,22.26122991147897]]]},"properties":{"st_nm":"West Bengal"}},{"type":"Feature","geometry":null,"properties":{"st_nm":"Dadra and Nagar Haveli and Daman and Diu"}},{"type":"Feature","geometry":{"type":"MultiPolygon","coordinates":[[[[79.68567898130168,11.880459493327141],[79.84012694835161,11.956070984917439],[79.80801400470757,11.844715879120816],[79.68567898130168,11.880459493327141]]],[[[79.72390867611603,10.92912945368192],[79.7483756807972,10.996492418916914],[79.85083126289963,10.985494383776505],[79.84930207510706,10.827397628633154],[79.72390867611603,10.92912945368192]]]]},"properties":{"st_nm":"Puducherry"}},{"type":"Feature","geometry":null,"properties":{"st_nm":"Lakshadweep"}},{"type":"Feature","geometry":{"type":"Polygon","coordinates":[[[95.13659243746541,27.815237657384596],[94.46222062094044,27.555409077192476],[94.21296301075094,27.60627498971686],[94.26648458349102,27.519665462986154],[94.21907976192124,27.504543164668092],[93.69762672465365,26.99450928503171],[93.39790591730922,26.957390916432836],[93.06148460294303,26.921647302226514],[92.65624983791102,27.00825682895722],[92.35958740615173,26.925771565404165],[92.11338817154738,26.892777459982945],[92.0139909650301,27.489420866350034],[91.8809516270762,27.721754358691136],[92.46815973942446,27.815237657384596],[92.73423841533227,27.97608392131305],[92.80152267820552,28.201543641691398],[93.22357850895582,28.34176858973159],[93.33979678119141,28.640090292915136],[93.96217621276887,28.712952275720333],[94.1869668182772,29.038769066754895],[94.6793652874859,29.327467489190585],[95.26963177541931,29.049767101895302],[96.08927643223876,29.45944391087547],[96.51897820195194,28.96728183834225],[96.32630054008767,28.51086338001535],[96.31406703774708,28.383011221508117],[96.66272185445386,28.459997467490968],[97.37073580241545,28.21804069440201],[97.25298834238728,27.900472429722754],[96.86151626748844,27.631020568782777],[96.60614190612864,27.365692971020454],[96.02199216936552,27.18010112802608],[95.68404166720676,26.90377549512335],[95.4959515687202,26.817165968392644],[95.23446045619012,26.682440037922657],[95.19623076137577,27.034377162415687],[95.3690289819366,27.109988654005985],[95.37667492089946,27.096241110080477],[95.48371806637961,27.24196507569087],[95.63357847005183,27.230967040550464],[95.87366095348588,27.54441104205207],[95.7742637469686,27.732752393831543],[95.96999978441802,27.95958686860244],[95.51888938560882,27.883975377012142],[95.51430182223109,27.879851113834487],[95.13659243746541,27.815237657384596]]]},"properties":{"st_nm":"Arunachal Pradesh"}},{"type":"Feature","geometry":{"type":"Polygon","coordinates":[[[95.48371806637961,27.24196507569087],[95.37667492089946,27.096241110080477],[95.3690289819366,27.109988654005985],[95.19623076137577,27.034377162415687],[94.92403533429767,26.94914239007753],[94.79099599634377,26.79654465250438],[94.73594523581112,26.749803003157652],[94.58608483213891,26.725057424091734],[94.3138894050608,26.461104580721962],[94.1640290013886,26.35112422931789],[93.954530273806,25.96894250818874],[93.7756153020749,25.96894250818874],[93.51259500175223,25.674745068182848],[93.3290924666434,25.54276864649796],[93.46977774356017,25.30631089097921],[93.24651632584442,24.97224557358934],[93.17464449959347,24.797651765735377],[93.08748079541677,24.572192045357028],[93.00949221799551,24.412720535821126],[92.89633232134507,24.39072446554031],[92.7617637955986,24.51307760647734],[92.53238562671255,24.17763753469492],[92.42228410564725,24.250499517500117],[92.29536151886364,24.245000499929915],[92.21431456585725,24.508953343299687],[92.51556456099425,24.88013702928843],[92.4253424812324,25.02998525807648],[92.54003156567542,25.09872297770402],[92.56908613373432,25.465782400515113],[92.66083740128873,25.57163848874153],[92.15161786636173,25.671995559397747],[92.27395288976761,26.065175315667304],[92.17302649545775,26.07617335080771],[91.72344528444111,26.034930719031184],[91.33503158512741,25.841090349681508],[91.00778539751667,25.824593296970896],[91.02613565102754,25.886457244635686],[90.43433997530157,25.990938578469557],[90.12238566561655,25.959319227440886],[90.01993008351411,25.607382102947856],[89.87159886763448,25.47678043565552],[89.84254429957558,25.882332981458035],[89.72938440292513,26.17103140389372],[89.84254429957558,26.38274358034656],[89.83489836061271,26.414362931375234],[89.85171942633102,26.69756233624072],[90.33647195657684,26.862532863346825],[90.95120544919143,26.777298091008667],[91.70356584313765,26.813041705214992],[92.11338817154738,26.892777459982945],[92.35958740615173,26.925771565404165],[92.65624983791102,27.00825682895722],[93.06148460294303,26.921647302226514],[93.39790591730922,26.957390916432836],[93.69762672465365,26.99450928503171],[94.21907976192124,27.504543164668092],[94.26648458349102,27.519665462986154],[94.21296301075094,27.60627498971686],[94.46222062094044,27.555409077192476],[95.13659243746541,27.815237657384596],[95.51430182223109,27.879851113834487],[95.51888938560882,27.883975377012142],[95.96999978441802,27.95958686860244],[95.7742637469686,27.732752393831543],[95.87366095348588,27.54441104205207],[95.63357847005183,27.230967040550464],[95.48371806637961,27.24196507569087]]]},"properties":{"st_nm":"Assam"}},{"type":"Feature","geometry":{"type":"Polygon","coordinates":[[[95.12282974733225,26.34837472053279],[95.01425741405951,25.89058150781334],[94.88274726389818,25.586760787059593],[94.67477772410817,25.44516108462685],[94.4882168134142,25.60463259416275],[94.19002519386234,25.548267664068167],[93.93618002029513,25.559265699208574],[93.8046698701338,25.46303289173001],[93.46977774356017,25.30631089097921],[93.3290924666434,25.54276864649796],[93.51259500175223,25.674745068182848],[93.7756153020749,25.96894250818874],[93.954530273806,25.96894250818874],[94.1640290013886,26.35112422931789],[94.3138894050608,26.461104580721962],[94.58608483213891,26.725057424091734],[94.73594523581112,26.749803003157652],[94.79099599634377,26.79654465250438],[94.92403533429767,26.94914239007753],[95.19623076137577,27.034377162415687],[95.23446045619012,26.682440037922657],[95.12282974733225,26.34837472053279]]]},"properties":{"st_nm":"Nagaland"}},{"type":"Feature","geometry":{"type":"Polygon","coordinates":[[[92.56908613373432,25.465782400515113],[92.54003156567542,25.09872297770402],[92.4253424812324,25.02998525807648],[92.1990226879315,25.12484331116249],[92.01704934061524,25.18945676761238],[91.35491102643087,25.23344890817401],[90.96955570270232,25.172959714901772],[90.23401637447442,25.203204311537892],[89.97405444973691,25.299437119016453],[89.87159886763448,25.47678043565552],[90.01993008351411,25.607382102947856],[90.12238566561655,25.959319227440886],[90.43433997530157,25.990938578469557],[91.02613565102754,25.886457244635686],[91.00778539751667,25.824593296970896],[91.33503158512741,25.841090349681508],[91.72344528444111,26.034930719031184],[92.17302649545775,26.07617335080771],[92.27395288976761,26.065175315667304],[92.15161786636173,25.671995559397747],[92.66083740128873,25.57163848874153],[92.56908613373432,25.465782400515113]]]},"properties":{"st_nm":"Meghalaya"}},{"type":"Feature","geometry":{"type":"Polygon","coordinates":[[[94.4882168134142,25.60463259416275],[94.67477772410817,25.44516108462685],[94.65336909501215,25.115220030414633],[94.62890209033097,24.75640913395885],[94.37505691676375,24.49383104498163],[94.25272189335786,24.11439883263758],[94.15638306242572,23.847696480482707],[93.7404439828457,24.005793235626058],[93.37802647600576,24.08827849917911],[93.25263307701472,24.02091553394412],[93.2067574432375,24.047035867402585],[93.00949221799551,24.412720535821126],[93.08748079541677,24.572192045357028],[93.17464449959347,24.797651765735377],[93.24651632584442,24.97224557358934],[93.46977774356017,25.30631089097921],[93.8046698701338,25.46303289173001],[93.93618002029513,25.559265699208574],[94.19002519386234,25.548267664068167],[94.4882168134142,25.60463259416275]]]},"properties":{"st_nm":"Manipur"}},{"type":"Feature","geometry":{"type":"Polygon","coordinates":[[[91.80449223744752,23.51500591748539],[91.7586166036703,23.266175372433676],[91.31973970720168,23.277173407574082],[91.22645925185469,23.73221711150843],[91.4696001108739,24.062158165720646],[91.75555822808516,24.1418939204886],[91.92376888526826,24.108899815067375],[92.07057091335533,24.3769769216148],[92.21431456585725,24.508953343299687],[92.29536151886364,24.245000499929915],[92.26477776301218,23.726718093938228],[92.1760848710429,23.707471532442515],[91.80449223744752,23.51500591748539]]]},"properties":{"st_nm":"Tripura"}},{"type":"Feature","geometry":null,"properties":{"st_nm":"Andaman and Nicobar Islands"}},{"type":"Feature","geometry":{"type":"Polygon","coordinates":[[[78.02039347518902,29.5817970518125],[78.33540616045919,29.79763349144299],[78.92567264839259,29.438822594987208],[78.8507424465565,29.34808880507885],[78.76052036679465,29.26422878713324],[78.97460665775495,29.130877611055805],[79.42265868097903,28.897169364322153],[79.68262060571654,28.854551978153076],[80.06491755385994,28.836680171049913],[80.31417516404943,28.62909225777473],[80.55272845969091,28.69095620543952],[81.05277286786249,28.40500729178893],[81.74243656231317,27.952713096639688],[82.20730965125556,27.844107499628166],[82.7318210641083,27.486671357564934],[83.29150379619024,27.335448374384335],[83.8618908428202,27.335448374384335],[83.9077664765974,27.274959181112095],[84.06068525585476,26.88727844241274],[84.418515199317,26.631574125398274],[84.05151012909933,26.55183837063032],[84.1570240867869,26.375869808383808],[84.05609769247705,26.099544175481075],[84.47203677205707,25.882332981458035],[84.60048854663326,25.732484752669986],[84.3191179927997,25.667871296220095],[83.93070429348602,25.557890944816023],[83.77931470202122,25.39841943528012],[83.5377030307946,25.30906039976431],[83.34961293230805,25.18395775004218],[83.39548856608525,24.781154713024765],[83.52394034066143,24.550195975076214],[83.50253171156541,24.5254503960103],[83.32973349100459,24.102026043104622],[82.81286801711471,23.96180109506443],[82.79757613918898,24.576316308534683],[82.52385152431829,24.6766733791909],[82.2975317310174,24.606560905170802],[82.09414975460511,24.81689832723109],[81.54058377369347,25.18808201321983],[81.12005713073572,24.903507853961795],[80.71482236570372,25.0657288722828],[80.4777982578548,24.97636983676699],[80.2637119668945,25.024486240506274],[80.10467643646685,25.350303031540836],[79.67344547896109,25.12071904798484],[79.28044421626967,25.32418269808237],[79.32326147446173,25.149588890228404],[78.87979701461539,25.15783741658371],[78.55866757817493,25.21282759228575],[78.63971453118134,25.071227889853006],[78.98531097230297,24.441590378064692],[78.99142772347327,24.416844798998778],[78.80639600057185,24.17901228908747],[78.26812189758594,24.449838904419998],[78.19013332016469,24.841643906297005],[78.37363585527352,25.09872297770402],[78.44703686931706,25.12209380237739],[78.39045692099184,25.205953820322993],[78.45162443269479,25.57163848874153],[78.88591376578569,25.912577578094155],[78.93790615073318,25.95244545547813],[79.13517137597518,26.4404832648337],[78.78039980809811,26.769049564653365],[78.54490488804177,26.76355054708316],[78.22224626380874,26.832288266710705],[77.76043155045151,26.93264533736692],[77.45459399193679,26.742929231194896],[77.64574246600849,27.24196507569087],[77.28332495916854,27.798740604673984],[77.34449247087149,27.849606517198367],[77.5295241937729,27.92659276318122],[77.47600262103282,28.084689518324573],[77.50046962571399,28.205667904869053],[77.34755084645664,28.520486660763208],[77.34143409528635,28.609845696279017],[77.2221574474656,28.83118115347971],[77.21604069629531,28.853177223760525],[77.14263968225177,29.16662122526213],[77.15487318459236,29.297222892554466],[77.13193536770376,29.484189489941386],[77.15181480900722,29.68765314003892],[77.22674501084332,29.939233193875733],[77.57998739092783,30.379154599492022],[77.5753998275501,30.401150669772836],[77.95922596348608,30.24167916023693],[77.71608510446687,29.88561777256625],[77.82006987436188,29.67390559611341],[78.02039347518902,29.5817970518125]]]},"properties":{"st_nm":"Uttar Pradesh"}},{"type":"Feature","geometry":{"type":"Polygon","coordinates":[[[75.67003183800338,28.519111906370657],[75.89329325571913,28.389884993470872],[75.93305213832605,27.92796751757377],[76.07679579082797,27.841357990843065],[76.22512700670761,27.83310946448776],[76.3122907108843,28.178172817018034],[76.85362318945536,28.22079020318711],[76.97748740065381,27.65439139345614],[77.28332495916854,27.798740604673984],[77.64574246600849,27.24196507569087],[77.45459399193679,26.742929231194896],[77.76043155045151,26.93264533736692],[78.22224626380874,26.832288266710705],[77.37507622672297,26.3648717732434],[77.11970186536317,26.213648790062802],[76.85209400166279,26.032181210246083],[76.54625644314807,25.838340840896407],[76.59366126471785,25.408042716027975],[77.0830013583414,25.33655548761533],[77.31237952722745,25.080851170600862],[76.87656100634396,25.040983293216886],[77.06923866820824,24.55706974703897],[76.84444806269991,24.43609136049449],[76.88114856972169,24.130895885348192],[76.21289350436702,24.20925688572359],[75.68991127930684,23.74733940982649],[75.46206229821338,23.917808954502803],[75.83671330739391,24.05665914815044],[75.92081863598546,24.54332220311346],[75.78472092244641,24.761908151529052],[75.54922600239007,24.702793712649363],[75.35196077714808,25.01898722293607],[75.19139605892785,25.03685903003923],[74.69746840192657,24.48283300984122],[74.90849631730173,24.212006394508695],[74.94060926094578,23.76521121692965],[74.77239860376268,23.542501005336405],[74.73416890894833,23.220808477479498],[74.31975901716089,23.059962213551042],[73.98180851500213,23.337662600846322],[73.95887069811351,23.3802799870154],[73.62703694712505,23.449017706642945],[73.36860421018011,23.814702375061483],[73.37777933693555,23.90406141057729],[73.06735421504311,24.194134587405532],[73.00159913996245,24.480083501056118],[72.95887932517748,24.3607520625455],[72.95878188177038,24.36047986890419],[72.95834978197382,24.3604927318788],[72.87531424942908,24.362964577400437],[72.81614394661773,24.364725990178023],[72.72787452509176,24.367353640866945],[72.68352807910713,24.46358644834551],[72.68332351347208,24.46363285464714],[72.68204227867083,24.46392350644028],[72.51990498530176,24.50070481694438],[72.50005787366794,24.416981179424894],[72.5000255439983,24.416844798998778],[72.49989802475449,24.416972575963342],[72.35382857336779,24.563337238703372],[72.35358902785798,24.563577268342843],[72.35322351591124,24.56394351900172],[72.33487326240035,24.632681238629267],[72.05809027194452,24.71241699339722],[71.28737962448743,24.61618418591866],[71.18798241797015,24.65055304573243],[71.11152302834147,24.675298624798344],[70.66500019290997,25.397044680887568],[70.67417531966541,25.676119822575398],[70.2689405546334,25.713238191174273],[70.14048878005723,26.155909105575663],[70.17413091149385,26.55183837063032],[69.5104634095169,26.742929231194896],[69.58692279914558,27.184225391203736],[70.02579969561421,27.56228284915523],[70.37139613673584,28.011827535519377],[70.75828064825696,27.721754358691136],[71.88070448800599,27.91421997364826],[72.29970194317116,28.668960135158706],[72.6621194500111,28.8930451011445],[72.94501919163721,29.02777103161449],[73.397658778239,29.94610696583849],[73.96804582486897,30.19356275649765],[74.29835038806486,29.954355492193795],[74.44821079173708,29.94748172023104],[74.52619936915833,29.940607948268283],[74.60265875878702,29.364585857789457],[75.2403300682902,29.26010452395559],[75.34584402597778,29.283475348628954],[75.52781737329404,28.9714061015199],[75.47429580055396,28.926039206565722],[75.67003183800338,28.519111906370657]]]},"properties":{"st_nm":"Rajasthan"}},{"type":"Feature","geometry":{"type":"Polygon","coordinates":[[[77.34143409528635,28.609845696279017],[77.34755084645664,28.520486660763208],[77.17475262589582,28.40500729178893],[76.88420694530683,28.502614853660045],[76.94231608142462,28.798187048058487],[77.21604069629531,28.853177223760525],[77.2221574474656,28.83118115347971],[77.34143409528635,28.609845696279017]]]},"properties":{"st_nm":"Delhi"}},{"type":"Feature","geometry":{"type":"Polygon","coordinates":[[[77.21604069629531,28.853177223760525],[76.94231608142462,28.798187048058487],[76.88420694530683,28.502614853660045],[77.17475262589582,28.40500729178893],[77.34755084645664,28.520486660763208],[77.50046962571399,28.205667904869053],[77.47600262103282,28.084689518324573],[77.5295241937729,27.92659276318122],[77.34449247087149,27.849606517198367],[77.28332495916854,27.798740604673984],[76.97748740065381,27.65439139345614],[76.85362318945536,28.22079020318711],[76.3122907108843,28.178172817018034],[76.22512700670761,27.83310946448776],[76.07679579082797,27.841357990843065],[75.93305213832605,27.92796751757377],[75.89329325571913,28.389884993470872],[75.67003183800338,28.519111906370657],[75.47429580055396,28.926039206565722],[75.52781737329404,28.9714061015199],[75.34584402597778,29.283475348628954],[75.2403300682902,29.26010452395559],[74.60265875878702,29.364585857789457],[74.52619936915833,29.940607948268283],[74.70511434088944,29.974976808082058],[75.19139605892785,29.844375140789722],[75.30302676778572,29.559800981531687],[75.72049503515832,29.814130544153603],[75.94681482845921,29.728895771815445],[76.098204419924,29.810006280975948],[76.21442269215959,29.840250877612068],[76.46673867793425,30.098704703411638],[76.64259527408021,30.14957061593602],[76.74810923176778,30.428645757623855],[76.90714476219543,30.458890354259974],[76.8276269969816,30.68160056585322],[76.83833131152963,30.754462548658417],[76.77716379982668,30.904310777446465],[77.0248922222236,30.74896353108821],[77.12276024094831,30.56337168809384],[77.20839475733244,30.48776019650354],[77.57998739092783,30.379154599492022],[77.22674501084332,29.939233193875733],[77.15181480900722,29.68765314003892],[77.13193536770376,29.484189489941386],[77.15487318459236,29.297222892554466],[77.14263968225177,29.16662122526213],[77.21604069629531,28.853177223760525]]]},"properties":{"st_nm":"Haryana"}},{"type":"Feature","geometry":{"type":"Polygon","coordinates":[[[88.53203036133999,27.17597686484843],[88.42498721585984,27.071495531014563],[88.28124356335792,27.131984724286802],[88.03810270433873,27.219969005410057],[88.11456209396741,27.61864777924982],[88.20478417372925,27.94171506149928],[88.6191940655167,28.09843706225008],[88.84398467102501,27.992580974023664],[88.79352147387009,27.416558883544837],[88.72164964761913,27.138858496249554],[88.53203036133999,27.17597686484843]]]},"properties":{"st_nm":"Sikkim"}},{"type":"Feature","geometry":{"type":"Polygon","coordinates":[[[84.1570240867869,26.375869808383808],[84.05151012909933,26.55183837063032],[84.418515199317,26.631574125398274],[84.06068525585476,26.88727844241274],[83.9077664765974,27.274959181112095],[83.8618908428202,27.335448374384335],[84.09738576287654,27.516915954201053],[84.6203679879367,27.339572637561986],[84.75799488926833,27.002757811387017],[85.25498092185475,26.753927266335303],[85.72902913755257,26.80891744203734],[85.81619284172928,26.599954774369603],[86.028749944897,26.665942985212045],[86.72300120272541,26.42536096651564],[87.0426014513733,26.560086896985627],[87.65886413178046,26.37999407156146],[88.10997453058968,26.54771410745267],[88.23995549295844,26.45835507193686],[87.85001260585217,26.039054982208835],[87.82707478896356,25.89058150781334],[88.06715727239762,25.483654207618272],[87.71085651672797,25.258194487239926],[87.55182098630031,25.331056470045123],[87.47841997225677,25.194955785182586],[87.1756407893272,25.057480345927495],[87.05177657812874,24.627182221059066],[86.91262048900455,24.547446466291113],[86.61137049386755,24.607935659563353],[86.4523349634399,24.37285265843715],[86.05474613737076,24.779779958632215],[85.9018273581134,24.766032414706704],[85.3742575696755,24.55432023825387],[85.33144031148343,24.510328097692238],[85.08829945246424,24.370103149652046],[84.80234133525298,24.5309494135805],[84.49650377673825,24.287617886098992],[84.32676393176257,24.489706781803974],[84.00869287090727,24.642304519377124],[83.87259515736821,24.53232416797305],[83.50253171156541,24.5254503960103],[83.52394034066143,24.550195975076214],[83.39548856608525,24.781154713024765],[83.34961293230805,25.18395775004218],[83.5377030307946,25.30906039976431],[83.77931470202122,25.39841943528012],[83.93070429348602,25.557890944816023],[84.3191179927997,25.667871296220095],[84.60048854663326,25.732484752669986],[84.47203677205707,25.882332981458035],[84.05609769247705,26.099544175481075],[84.1570240867869,26.375869808383808]]]},"properties":{"st_nm":"Bihar"}},{"type":"Feature","geometry":{"type":"Polygon","coordinates":[[[87.83930829130415,24.74541109881844],[87.88977148845908,24.565318273394276],[87.638984690477,24.254623780677772],[87.23374992544501,24.02503979712177],[87.08541870956536,23.811952866276382],[86.80098978014666,23.833948936557196],[86.80098978014666,23.69922300608721],[86.48597709487652,23.63598430402987],[86.31012049873054,23.411899338044073],[85.88500629239508,23.48338656645672],[85.85901009992133,23.42977114514723],[85.88500629239508,23.16719305617001],[86.24130704806473,22.9967235114937],[86.55937810892004,22.713524106628213],[86.84533622613131,22.400080105126612],[86.72758876610314,22.21586301652479],[86.06697963971135,22.556802105877413],[85.96299486981634,22.485314877464766],[86.00887050359354,22.115505945868577],[85.68315350377537,22.05776626138144],[85.23815985613645,22.009649857642156],[85.06994919895335,22.490813895034968],[84.42921951386501,22.351963701387326],[84.01175124649241,22.527932263633843],[84.29312180032596,22.772638545507903],[84.03774743896616,23.171317319347665],[84.07444794598793,23.33353833766867],[84.01633880987013,23.634609549637318],[83.32973349100459,24.102026043104622],[83.50253171156541,24.5254503960103],[83.87259515736821,24.53232416797305],[84.00869287090727,24.642304519377124],[84.32676393176257,24.489706781803974],[84.49650377673825,24.287617886098992],[84.80234133525298,24.5309494135805],[85.08829945246424,24.370103149652046],[85.33144031148343,24.510328097692238],[85.3742575696755,24.55432023825387],[85.9018273581134,24.766032414706704],[86.05474613737076,24.779779958632215],[86.4523349634399,24.37285265843715],[86.61137049386755,24.607935659563353],[86.91262048900455,24.547446466291113],[87.05177657812874,24.627182221059066],[87.1756407893272,25.057480345927495],[87.47841997225677,25.194955785182586],[87.55182098630031,25.331056470045123],[87.71085651672797,25.258194487239926],[87.89130067625166,24.855391450222513],[87.83930829130415,24.74541109881844]]]},"properties":{"st_nm":"Jharkhand"}},{"type":"Feature","geometry":{"type":"Polygon","coordinates":[[[77.2741498324131,32.8743338219719],[76.77257623644896,33.251016525530844],[76.02174503029532,33.99750816068598],[75.59510163616729,34.19822230199841],[75.49723361744257,34.23396591620474],[75.38407372079212,34.36181807471198],[75.37489859403668,34.38793840817044],[75.23880088049764,34.62852042686684],[74.60112957099443,34.73712602387837],[74.31975901716089,34.786617182010204],[74.14696079660007,35.0973116747267],[73.79524760430814,35.24441039472965],[73.08876284413914,35.88229643287326],[72.53366767543491,35.916665292687036],[72.59483518713786,36.26172864521732],[73.1254633511609,36.686527752515545],[73.70043796116857,36.68377824373044],[74.70817271647459,37.07695799999999],[74.92072981964232,36.90511370093113],[75.34278565039264,37.05221242093408],[75.74802041542465,36.58754543625187],[76.35052040569865,36.359336207088425],[76.93467014246175,35.7833141166096],[77.61210033457186,35.468495360715444],[78.66418153586251,35.85755085380735],[79.21468914118901,35.97852924035183],[80.28970815936826,35.607345554363086],[80.06797592944508,34.713755199204996],[79.50676400957057,34.474547934901146],[79.35384523031321,34.03600128367741],[78.90426401929656,33.97551209040517],[79.10611680791628,33.61670119394938],[78.98836934788811,33.3335017890839],[79.62604065739131,32.73960789150191],[79.11376274687915,32.38354650383123],[78.76052036679465,32.65437311916376],[78.3981028599547,32.52514620626397],[78.0158059118113,32.62000425934998],[77.74055210914806,32.969191875057916],[77.2741498324131,32.8743338219719]]]},"properties":{"st_nm":"Ladakh"}},{"type":"Feature","geometry":{"type":"Polygon","coordinates":[[[74.60112957099443,34.73712602387837],[75.23880088049764,34.62852042686684],[75.37489859403668,34.38793840817044],[75.38407372079212,34.36181807471198],[75.49723361744257,34.23396591620474],[75.59510163616729,34.19822230199841],[76.02174503029532,33.99750816068598],[76.77257623644896,33.251016525530844],[76.74810923176778,33.1795292971182],[76.22206863112245,33.021432541974846],[75.80154198816471,32.885331857112305],[75.83671330739391,32.511398662338465],[75.34125646260006,32.34642813523236],[75.20515874906101,32.417915363645],[74.88861687599828,32.521021943086325],[74.4466816039445,32.78909904963375],[73.688204458828,33.087420752817295],[73.59798237906615,33.712934001427946],[73.48788085800085,34.144606880688926],[73.39001283927614,34.37419086424493],[74.14696079660007,35.0973116747267],[74.31975901716089,34.786617182010204],[74.60112957099443,34.73712602387837]]]},"properties":{"st_nm":"Jammu and Kashmir"}},{"type":"Feature","geometry":{"type":"Polygon","coordinates":[[[78.67335666261795,32.078351028684935],[78.88132620240796,31.28374298979051],[78.310939155778,31.28374298979051],[77.82924500111733,31.029413427168596],[77.70385160212629,30.764085829406273],[77.5753998275501,30.401150669772836],[77.57998739092783,30.379154599492022],[77.20839475733244,30.48776019650354],[77.12276024094831,30.56337168809384],[77.0248922222236,30.74896353108821],[76.77716379982668,30.904310777446465],[76.73281735384205,30.937304882867686],[76.64565364966535,31.209506252592764],[76.39180847609813,31.412969902690296],[76.2893528939957,31.307113814463875],[75.96057751859237,31.857015571484236],[75.59816001175243,32.08247529186258],[75.60121838733758,32.09347332700299],[75.93152295053348,32.39454453897164],[75.83671330739391,32.511398662338465],[75.80154198816471,32.885331857112305],[76.22206863112245,33.021432541974846],[76.74810923176778,33.1795292971182],[76.77257623644896,33.251016525530844],[77.2741498324131,32.8743338219719],[77.74055210914806,32.969191875057916],[78.0158059118113,32.62000425934998],[78.3981028599547,32.52514620626397],[78.67335666261795,32.078351028684935]]]},"properties":{"st_nm":"Himachal Pradesh"}},{"type":"Feature","geometry":{"type":"Polygon","coordinates":[[[75.83671330739391,32.511398662338465],[75.93152295053348,32.39454453897164],[75.60121838733758,32.09347332700299],[75.59816001175243,32.08247529186258],[75.96057751859237,31.857015571484236],[76.2893528939957,31.307113814463875],[76.39180847609813,31.412969902690296],[76.64565364966535,31.209506252592764],[76.73281735384205,30.937304882867686],[76.77716379982668,30.904310777446465],[76.83833131152963,30.754462548658417],[76.8276269969816,30.68160056585322],[76.90714476219543,30.458890354259974],[76.74810923176778,30.428645757623855],[76.64259527408021,30.14957061593602],[76.46673867793425,30.098704703411638],[76.21442269215959,29.840250877612068],[76.098204419924,29.810006280975948],[75.94681482845921,29.728895771815445],[75.72049503515832,29.814130544153603],[75.30302676778572,29.559800981531687],[75.19139605892785,29.844375140789722],[74.70511434088944,29.974976808082058],[74.52619936915833,29.940607948268283],[74.44821079173708,29.94748172023104],[74.29835038806486,29.954355492193795],[73.96804582486897,30.19356275649765],[74.21577424726588,30.691223846601076],[74.70817271647459,31.072030813337673],[74.61183388554245,31.499579429421004],[74.50326155226972,31.74016144811741],[74.91308388067945,32.04398216887115],[75.3794861574144,32.182832362518795],[75.34125646260006,32.34642813523236],[75.83671330739391,32.511398662338465]]]},"properties":{"st_nm":"Punjab"}},{"type":"Feature","geometry":{"type":"Polygon","coordinates":[[[79.40736680305328,31.073405567730223],[80.1016180608817,30.788831408472188],[80.92890865666402,30.174316195001936],[80.36616754899694,29.739893806955852],[80.24230333779848,29.44432161255741],[80.07409268061538,28.94116150488378],[80.06491755385994,28.836680171049913],[79.68262060571654,28.854551978153076],[79.42265868097903,28.897169364322153],[78.97460665775495,29.130877611055805],[78.76052036679465,29.26422878713324],[78.8507424465565,29.34808880507885],[78.92567264839259,29.438822594987208],[78.33540616045919,29.79763349144299],[78.02039347518902,29.5817970518125],[77.82006987436188,29.67390559611341],[77.71608510446687,29.88561777256625],[77.95922596348608,30.24167916023693],[77.5753998275501,30.401150669772836],[77.70385160212629,30.764085829406273],[77.82924500111733,31.029413427168596],[78.310939155778,31.28374298979051],[78.88132620240796,31.28374298979051],[79.40736680305328,31.073405567730223]]]},"properties":{"st_nm":"Uttarakhand"}},{"type":"Feature","geometry":null,"properties":{"st_nm":"Chandigarh"}}]}